{"type":"FeatureCollection","features":[{"type":"Feature","id":0,"geometry":{"type":"Point","coordinates":[-72.986635694999961,-38.707173121999972]},"properties":{"FID":0,"N":10,"Tipo":"Sede","Comunidad":"Ñancupil 2","Sector":"Hualacura","Programa":"PDTI – Imperial Centro 2","Tecnico":"Camilo Cruces Herrera","APR_PROYEC":" ","OBSERVACIO":" ","NORTE":5713794.0000099996,"ESTE":675064.99999299995}},{"type":"Feature","id":1,"geometry":{"type":"Point","coordinates":[-72.929590481999981,-38.704635776999964]},"properties":{"FID":1,"N":11,"Tipo":"Sede","Comunidad":"Maliqueo y Sillau","Sector":"Catrianche","Programa":"PDTI – Imperial Centro 2","Tecnico":"Claudia Bravo Millar","APR_PROYEC":" ","OBSERVACIO":" ","NORTE":5713964.9999799998,"ESTE":680032.00002200005}},{"type":"Feature","id":2,"geometry":{"type":"Point","coordinates":[-72.916276352999944,-38.706156227999941]},"properties":{"FID":2,"N":12,"Tipo":"Sede","Comunidad":"Huinca Curamil","Sector":"El Peral","Programa":"PDTI – Imperial Centro 2","Tecnico":"Claudia Bravo Millar","APR_PROYEC":" ","OBSERVACIO":" ","NORTE":5713769.9999500001,"ESTE":681186.00003500003}},{"type":"Feature","id":3,"geometry":{"type":"Point","coordinates":[-72.911457928999937,-38.706953255999963]},"properties":{"FID":3,"N":13,"Tipo":"Sede","Comunidad":"Curamil Paillavil","Sector":"El Peral","Programa":"PDTI – Imperial Centro 2","Tecnico":"Hector Ruminot Saez","APR_PROYEC":" ","OBSERVACIO":" ","NORTE":5713671.9999500001,"ESTE":681603}},{"type":"Feature","id":4,"geometry":{"type":"Point","coordinates":[-72.890351019999969,-38.695401201999971]},"properties":{"FID":4,"N":14,"Tipo":"Sede","Comunidad":"Domingo Huenuman","Sector":"Los Peumos","Programa":"PDTI – Imperial Centro 2","Tecnico":"Hector Ruminot Saez","APR_PROYEC":" ","OBSERVACIO":" ","NORTE":5714912.0000200002,"ESTE":683468.00002200005}},{"type":"Feature","id":5,"geometry":{"type":"Point","coordinates":[-72.883868049999933,-38.693004366999958]},"properties":{"FID":5,"N":15,"Tipo":"Sede","Comunidad":"Pedro Curiqueo","Sector":"Los Boldos","Programa":"PDTI – Imperial Centro 2","Tecnico":"Hector Ruminot Saez","APR_PROYEC":" ","OBSERVACIO":" ","NORTE":5715164.9999700002,"ESTE":684037.99998199998}},{"type":"Feature","id":7,"geometry":{"type":"Point","coordinates":[-72.979042836999952,-38.733001506999983]},"properties":{"FID":7,"N":8,"Tipo":"Sede","Comunidad":"Huenchuñanco","Sector":"Hualacura","Programa":"PDTI – Imperial Centro 2","Tecnico":"Claudia Bravo Millar","APR_PROYEC":" ","OBSERVACIO":" ","NORTE":5710912.9999599997,"ESTE":675662.00003200001}},{"type":"Feature","id":9,"geometry":{"type":"Point","coordinates":[-73.070595814999933,-38.709706509999933]},"properties":{"FID":9,"N":24,"Tipo":"Sede","Comunidad":"Puente de Fierro","Sector":"Puente de Fierro","Programa":"PDTI – Imperial Centro 2","Tecnico":"Andres Hernandez Cea","APR_PROYEC":" ","OBSERVACIO":" ","NORTE":5713670,"ESTE":667757.99997899996}},{"type":"Feature","id":10,"geometry":{"type":"Point","coordinates":[-73.081671081999957,-38.727747973999954]},"properties":{"FID":10,"N":25,"Tipo":"Sede","Comunidad":"Huanaco Huenchun","Sector":"Imperialito","Programa":"PDTI – Imperial Centro 2","Tecnico":"Andres Hernandez Cea","APR_PROYEC":" ","OBSERVACIO":" ","NORTE":5711687.9999399995,"ESTE":666753.00003300002}},{"type":"Feature","id":11,"geometry":{"type":"Point","coordinates":[-73.016328165999937,-38.739181863999931]},"properties":{"FID":11,"N":26,"Tipo":"Sede","Comunidad":"Aukafe Lisahue","Sector":"Lisahue","Programa":"PDTI – Imperial Centro 2","Tecnico":"Andres Hernandez Cea","APR_PROYEC":" ","OBSERVACIO":" ","NORTE":5710297.9999900004,"ESTE":672405.99999399995}},{"type":"Feature","id":12,"geometry":{"type":"Point","coordinates":[-73.043186859999935,-38.736417918999962]},"properties":{"FID":12,"N":28,"Tipo":"Sede","Comunidad":"Alecoy Cheuquecoi","Sector":"Manzanal","Programa":"PDTI – Imperial Centro 2","Tecnico":"Valeska Cisterna Mora","APR_PROYEC":" ","OBSERVACIO":" ","NORTE":5710654.9999399995,"ESTE":670078.00005499995}},{"type":"Feature","id":16,"geometry":{"type":"Point","coordinates":[-72.879987636999942,-38.765954520999969]},"properties":{"FID":16,"N":33,"Tipo":"Sede","Comunidad":"Manuel Tramolao","Sector":"Trihueche","Programa":"PDTI – Imperial Centro 1","Tecnico":"Marcelo Tapia Barrera","APR_PROYEC":" ","OBSERVACIO":" ","NORTE":5707060.9999299999,"ESTE":684188.00001299998}},{"type":"Feature","id":17,"geometry":{"type":"Point","coordinates":[-73.062595768999984,-38.732551356999977]},"properties":{"FID":17,"N":35,"Tipo":"Sede","Comunidad":"Pehuenche","Sector":"Coipuco","Programa":"PDTI – Imperial Centro 2","Tecnico":"Valeska Cisterna Mora","APR_PROYEC":" ","OBSERVACIO":" ","NORTE":5711120.0000299998,"ESTE":668399.99997500004}},{"type":"Feature","id":18,"geometry":{"type":"Point","coordinates":[-72.817822056999944,-38.76578298499993]},"properties":{"FID":18,"N":36,"Tipo":"Sede","Comunidad":"Ignacio Elgueta","Sector":"Rengalil","Programa":"PDTI – Imperial Centro 1","Tecnico":"Emilio Colihuinca Loncon","APR_PROYEC":" ","OBSERVACIO":" ","NORTE":5706953.0000099996,"ESTE":689590.00002000004}},{"type":"Feature","id":19,"geometry":{"type":"Point","coordinates":[-72.940589178999971,-38.884416587999965]},"properties":{"FID":19,"N":38,"Tipo":"Sede","Comunidad":"Juan Millaleo","Sector":"Millacoy","Programa":"PDTI – Mañio","Tecnico":"Nivia Coronado Pincheira","APR_PROYEC":" ","OBSERVACIO":" ","NORTE":5694034.0000099996,"ESTE":678626.00005999999}},{"type":"Feature","id":20,"geometry":{"type":"Point","coordinates":[-73.04579737499995,-38.851102676999972]},"properties":{"FID":20,"N":43,"Tipo":"Sede","Comunidad":"Colihuinca Quechuvil","Sector":"Mañio Ducañan","Programa":"PDTI – Mañio","Tecnico":"Emilio Gonzalez Huenuman","APR_PROYEC":" ","OBSERVACIO":" ","NORTE":5697932.0000099996,"ESTE":669578.99999699998}},{"type":"Feature","id":21,"geometry":{"type":"Point","coordinates":[-72.990442635999955,-38.764608814999974]},"properties":{"FID":21,"N":44,"Tipo":"Sede","Comunidad":"Gallardo Tranamil","Sector":"Rulo","Programa":"PDTI – Mañio","Tecnico":"Rosa Cifuentes Curiqueo","APR_PROYEC":" ","OBSERVACIO":" ","NORTE":5707426.9999900004,"ESTE":674594.00005000003}},{"type":"Feature","id":22,"geometry":{"type":"Point","coordinates":[-73.009412618999988,-38.760347197999977]},"properties":{"FID":22,"N":45,"Tipo":"Sede","Comunidad":"Cristobal Relmul","Sector":"Rulo","Programa":"PDTI – Mañio","Tecnico":"Rosa Cifuentes Curiqueo","APR_PROYEC":" ","OBSERVACIO":" ","NORTE":5707935.9999900004,"ESTE":672956.000015}},{"type":"Feature","id":23,"geometry":{"type":"Point","coordinates":[-73.015010936999943,-38.759739620999937]},"properties":{"FID":23,"N":46,"Tipo":"Sede","Comunidad":"Ignacio Antileo","Sector":"Rulo","Programa":"PDTI – Mañio","Tecnico":"Lorena Araneda Gutiqrrez","APR_PROYEC":" ","OBSERVACIO":" ","NORTE":5708013.9999399995,"ESTE":672470.99999399995}},{"type":"Feature","id":24,"geometry":{"type":"Point","coordinates":[-73.034902529999954,-38.75408383499996]},"properties":{"FID":24,"N":47,"Tipo":"Sede","Comunidad":"Manuel Lorenzo","Sector":"Rulo","Programa":"PDTI – Mañio","Tecnico":"Rosa Cifuentes Curiqueo","APR_PROYEC":" ","OBSERVACIO":" ","NORTE":5708678.9999200003,"ESTE":670756.00005300005}},{"type":"Feature","id":25,"geometry":{"type":"Point","coordinates":[-73.039466581999989,-38.759287523999944]},"properties":{"FID":25,"N":48,"Tipo":"Sede","Comunidad":"Alchao Pehuenche","Sector":"Loncopulli","Programa":"PDTI – Mañio","Tecnico":"Lorena Araneda Gutiqrrez","APR_PROYEC":" ","OBSERVACIO":" ","NORTE":5708110.0000099996,"ESTE":670346.99997899996}},{"type":"Feature","id":26,"geometry":{"type":"Point","coordinates":[-73.054465468999979,-38.751942299999939]},"properties":{"FID":26,"N":49,"Tipo":"Sede","Comunidad":"Luis Martin Lemuñi","Sector":"Cardal","Programa":"PDTI – Mañio","Tecnico":"Lorena Araneda Gutiqrrez","APR_PROYEC":" ","OBSERVACIO":" ","NORTE":5708953.0000099996,"ESTE":669061.00003700005}},{"type":"Feature","id":27,"geometry":{"type":"Point","coordinates":[-73.065945713999952,-38.750799312999959]},"properties":{"FID":27,"N":50,"Tipo":"Sede","Comunidad":"Luis Nahuelpan","Sector":"Guaiquipen","Programa":"PDTI – Mañio","Tecnico":"Rosa Cifuentes Curiqueo","APR_PROYEC":" ","OBSERVACIO":" ","NORTE":5709100.9999299999,"ESTE":668066.00001399999}},{"type":"Feature","id":28,"geometry":{"type":"Point","coordinates":[-73.040751917999955,-38.69331527199995]},"properties":{"FID":28,"N":52,"Tipo":"Sede","Comunidad":"Manuel Caniulaf","Sector":"Moltrohue Centro","Programa":"PDTI – Nahuelbuta","Tecnico":"Juan Henriquez Riquelme","APR_PROYEC":" ","OBSERVACIO":" ","NORTE":5715434.0000299998,"ESTE":670392.00002699997}},{"type":"Feature","id":30,"geometry":{"type":"Point","coordinates":[-72.950987231999989,-38.652760472999944]},"properties":{"FID":30,"N":54,"Tipo":"Sede","Comunidad":"Leufuman","Sector":"Trapico Chico","Programa":"PDTI – Nahuelbuta","Tecnico":"Solange Barboza Gonzalez","APR_PROYEC":" ","OBSERVACIO":" ","NORTE":5719763.9999799998,"ESTE":678300.00000300002}},{"type":"Feature","id":31,"geometry":{"type":"Point","coordinates":[-72.967793462999964,-38.637888845999953]},"properties":{"FID":31,"N":55,"Tipo":"Sede","Comunidad":"Lefiman","Sector":"Chivilcoyan","Programa":"PDTI – Nahuelbuta","Tecnico":"Solange Barboza Gonzalez","APR_PROYEC":" ","OBSERVACIO":" ","NORTE":5721446.9999299999,"ESTE":676873.99998700002}},{"type":"Feature","id":32,"geometry":{"type":"Point","coordinates":[-72.976739813999984,-38.646171582999955]},"properties":{"FID":32,"N":56,"Tipo":"Sede","Comunidad":"Ignacio Rañiman","Sector":"Chivilcoyan","Programa":"PDTI – Nahuelbuta","Tecnico":"Solange Barboza Gonzalez","APR_PROYEC":" ","OBSERVACIO":" ","NORTE":5720545.0000099996,"ESTE":676075.000061}},{"type":"Feature","id":33,"geometry":{"type":"Point","coordinates":[-72.910576619999972,-38.672832706999941]},"properties":{"FID":33,"N":57,"Tipo":"Sede","Comunidad":"Lincoqueo","Sector":"Cuelche","Programa":"PDTI – Imperial Centro 2","Tecnico":"Hans Michael Castro","APR_PROYEC":" ","OBSERVACIO":" ","NORTE":5717456.9999599997,"ESTE":681766.00000400003}},{"type":"Feature","id":34,"geometry":{"type":"Point","coordinates":[-72.892370821999975,-38.66026962799998]},"properties":{"FID":34,"N":58,"Tipo":"Sede","Comunidad":"Mulato Chiguaihue","Sector":"Tromeñelo","Programa":"PDTI – Imperial Centro 2","Tecnico":"Hans Michael Castro","APR_PROYEC":" ","OBSERVACIO":" ","NORTE":5718814.9999500001,"ESTE":683382.00004399999}},{"type":"Feature","id":35,"geometry":{"type":"Point","coordinates":[-72.995395690999942,-38.695330572999978]},"properties":{"FID":35,"N":59,"Tipo":"Sede","Comunidad":"Pilpilco II","Sector":"Hualacura","Programa":"PDTI – Imperial Centro 2","Tecnico":"Hans Michael Castro","APR_PROYEC":" ","OBSERVACIO":" ","NORTE":5715124.9999799998,"ESTE":674331.99999000004}},{"type":"Feature","id":36,"geometry":{"type":"Point","coordinates":[-72.882383989999937,-38.828484656999933]},"properties":{"FID":36,"N":61,"Tipo":"Sede","Comunidad":"Domingo ñancucheo","Sector":"Misión Boroa","Programa":"PDTI – Boroa","Tecnico":"Leonel Cayul Quintana","APR_PROYEC":" ","OBSERVACIO":" ","NORTE":5700126,"ESTE":683819.00006800005}},{"type":"Feature","id":37,"geometry":{"type":"Point","coordinates":[-72.883186694999949,-38.831328442999961]},"properties":{"FID":37,"N":62,"Tipo":"Sede","Comunidad":"Domingo Melin","Sector":"Misión Boroa","Programa":"PDTI – Boroa","Tecnico":"Leonel Cayul Quintana","APR_PROYEC":" ","OBSERVACIO":" ","NORTE":5699812,"ESTE":683742.00004099996}},{"type":"Feature","id":38,"geometry":{"type":"Point","coordinates":[-72.877457334999974,-38.843487424999978]},"properties":{"FID":38,"N":63,"Tipo":"Sede","Comunidad":"Francisco Collipal","Sector":"Rapa Boroa","Programa":"PDTI – Boroa","Tecnico":"Juan Pablo Morales Mariman","APR_PROYEC":" ","OBSERVACIO":" ","NORTE":5698450.9999299999,"ESTE":684208.00005399995}},{"type":"Feature","id":39,"geometry":{"type":"Point","coordinates":[-72.913812173999986,-38.802686082999969]},"properties":{"FID":39,"N":64,"Tipo":"Sede","Comunidad":"Catril Huinca","Sector":"Lamecura","Programa":"PDTI – Boroa","Tecnico":"Leonel Cayul Quintana","APR_PROYEC":" ","OBSERVACIO":" ","NORTE":5703051.9999299999,"ESTE":681156.00001199997}},{"type":"Feature","id":40,"geometry":{"type":"Point","coordinates":[-73.016444324999952,-38.652582604999964]},"properties":{"FID":40,"N":67,"Tipo":"Sede","Comunidad":"Juan Huaiquinao Mariman","Sector":"Codihue Rincón","Programa":"PDTI – Nahuelbuta","Tecnico":"Magdalena Jimenez Castro","APR_PROYEC":" ","OBSERVACIO":" ","NORTE":5719909,"ESTE":672603.99999599997}},{"type":"Feature","id":41,"geometry":{"type":"Point","coordinates":[-73.002494046999971,-38.655075370999953]},"properties":{"FID":41,"N":68,"Tipo":"Sede","Comunidad":"Currihual","Sector":"Ranquilco Alto","Programa":"PDTI – Nahuelbuta","Tecnico":"Magdalena Jimenez Castro","APR_PROYEC":" ","OBSERVACIO":" ","NORTE":5719605.9999700002,"ESTE":673812.00002599997}},{"type":"Feature","id":42,"geometry":{"type":"Point","coordinates":[-73.001824308999971,-38.652297650999969]},"properties":{"FID":42,"N":69,"Tipo":"Sede","Comunidad":"Millavil","Sector":"Peleco","Programa":"PDTI – Nahuelbuta","Tecnico":"Magdalena Jimenez Castro","APR_PROYEC":" ","OBSERVACIO":" ","NORTE":5719912.9999200003,"ESTE":673877.000031}},{"type":"Feature","id":44,"geometry":{"type":"Point","coordinates":[-73.000454005999984,-38.663970074999952]},"properties":{"FID":44,"N":71,"Tipo":"Sede","Comunidad":"Meliñir","Sector":"Ranquilco Alto","Programa":"PDTI – Nahuelbuta","Tecnico":"Magdalena Jimenez Castro","APR_PROYEC":" ","OBSERVACIO":" ","NORTE":5718614.9999700002,"ESTE":673968.00005000003}},{"type":"Feature","id":45,"geometry":{"type":"Point","coordinates":[-72.966837915999974,-38.668030830999953]},"properties":{"FID":45,"N":72,"Tipo":"Sede","Comunidad":"Landeros Pichulman","Sector":"Trapico Grande","Programa":"PDTI – Nahuelbuta","Tecnico":"Magdalena Jimenez Castro","APR_PROYEC":" ","OBSERVACIO":" ","NORTE":5718099.9999599997,"ESTE":676883.00003500003}},{"type":"Feature","id":46,"geometry":{"type":"Point","coordinates":[-72.947797603999959,-38.665472560999945]},"properties":{"FID":46,"N":73,"Tipo":"Sede","Comunidad":"Antivil","Sector":"Carritahue","Programa":"PDTI – Nahuelbuta","Tecnico":"Magdalena Jimenez Castro","APR_PROYEC":" ","OBSERVACIO":" ","NORTE":5718346.9999900004,"ESTE":678546.00003600004}},{"type":"Feature","id":47,"geometry":{"type":"Point","coordinates":[-72.914775820999978,-38.870289724999964]},"properties":{"FID":47,"N":74,"Tipo":"Sede","Comunidad":"Juan Calfuqeo","Sector":"Quilaco","Programa":"PDTI – Boroa","Tecnico":"Leonel Cayul Quintana","APR_PROYEC":" ","OBSERVACIO":" ","NORTE":5695550.9999700002,"ESTE":680901.00002799998}},{"type":"Feature","id":48,"geometry":{"type":"Point","coordinates":[-72.949171150999973,-38.823675798999943]},"properties":{"FID":48,"N":79,"Tipo":"Sede","Comunidad":"Pedro Catril","Sector":"Bochoco","Programa":"PDTI – Boroa","Tecnico":"Hector Valenzuela","APR_PROYEC":" ","OBSERVACIO":" ","NORTE":5700791.9999299999,"ESTE":678033.00004399999}},{"type":"Feature","id":49,"geometry":{"type":"Point","coordinates":[-72.888951907999967,-38.837379607999935]},"properties":{"FID":49,"N":82,"Tipo":"Sede","Comunidad":"Felipe Pichicón","Sector":"Long Long","Programa":"PDTI – Boroa","Tecnico":"Hector Valenzuela","APR_PROYEC":" ","OBSERVACIO":" ","NORTE":5699151.9999399995,"ESTE":683225.99999499996}},{"type":"Feature","id":50,"geometry":{"type":"Point","coordinates":[-72.833596631999967,-38.883687193999947]},"properties":{"FID":50,"N":84,"Tipo":"Sede","Comunidad":"Pedro Rapiman","Sector":"Alto Boroa","Programa":"PDTI – Boroa","Tecnico":"Jennifer Gutierrez Q.","APR_PROYEC":" ","OBSERVACIO":" ","NORTE":5693899.9999700002,"ESTE":687909.00004399999}},{"type":"Feature","id":51,"geometry":{"type":"Point","coordinates":[-72.835282780999933,-38.875230900999952]},"properties":{"FID":51,"N":85,"Tipo":"Sede","Comunidad":"Ignacio Neculman","Sector":"Alto Boroa","Programa":"PDTI – Boroa","Tecnico":"Jennifer Gutierrez Q.","APR_PROYEC":" ","OBSERVACIO":" ","NORTE":5694841.9999799998,"ESTE":687785.00002499996}},{"type":"Feature","id":52,"geometry":{"type":"Point","coordinates":[-72.83123498499998,-38.821815367999932]},"properties":{"FID":52,"N":90,"Tipo":"Sede","Comunidad":"Juan Neculpan","Sector":"Huacanilahue","Programa":"PDTI – Boroa","Tecnico":"José Miguel Paillamil M.","APR_PROYEC":" ","OBSERVACIO":" ","NORTE":5700761.9999500001,"ESTE":688277.00007099996}},{"type":"Feature","id":53,"geometry":{"type":"Point","coordinates":[-72.819598453999959,-38.832122603999949]},"properties":{"FID":53,"N":91,"Tipo":"Sede","Comunidad":"Alonso Mariqueo","Sector":"Huacanilahue","Programa":"PDTI – Boroa","Tecnico":"José Miguel Paillamil M.","APR_PROYEC":" ","OBSERVACIO":" ","NORTE":5699593.9999399995,"ESTE":689260.000031}},{"type":"Feature","id":54,"geometry":{"type":"Point","coordinates":[-72.835810133999985,-38.860887459999958]},"properties":{"FID":54,"N":92,"Tipo":"Sede","Comunidad":"Curiqueo","Sector":"Lliuche Boroa","Programa":"PDTI – Boroa","Tecnico":"José Miguel Paillamil M.","APR_PROYEC":" ","OBSERVACIO":" ","NORTE":5696434.9999200003,"ESTE":687777.00004499999}},{"type":"Feature","id":56,"geometry":{"type":"Point","coordinates":[-72.824371858999939,-38.848997650999934]},"properties":{"FID":56,"N":94,"Tipo":"Sede","Comunidad":"Andrés Lienqueo","Sector":"Tragna Boroa","Programa":"PDTI – Boroa","Tecnico":"Carolina Huenucoy Nahuelman","APR_PROYEC":" ","OBSERVACIO":" ","NORTE":5697731.0000299998,"ESTE":688801.00004199997}},{"type":"Feature","id":59,"geometry":{"type":"Point","coordinates":[-72.911840466603607,-38.863074082808573]},"properties":{"FID":59,"N":0,"Tipo":"Sede Andres Leufu","Comunidad":"Andres Leufu","Sector":"Quilaco","Programa":" ","Tecnico":" ","APR_PROYEC":"Mision Boroa","OBSERVACIO":" ","NORTE":5696346,"ESTE":681174}},{"type":"Feature","id":60,"geometry":{"type":"Point","coordinates":[-72.891389614851946,-38.838703026125494]},"properties":{"FID":60,"N":0,"Tipo":"Sede Comunidad Cumil Lizama","Comunidad":"Cumil Lizama","Sector":"Copoupille - Filulahuen","Programa":" ","Tecnico":" ","APR_PROYEC":"Mision Boroa","OBSERVACIO":" ","NORTE":5699010.0099999998,"ESTE":683011.01000000001}},{"type":"Feature","id":61,"geometry":{"type":"Point","coordinates":[-72.877224566480706,-38.839961618977107]},"properties":{"FID":61,"N":0,"Tipo":"Sede Comunidad Juan Calvuqueo","Comunidad":"Juan Calvuqueo, Felipe Cheuquepal y Martin Pail","Sector":"Llancapuel, Yeupeco y Rauc","Programa":" ","Tecnico":" ","APR_PROYEC":"Mision Boroa","OBSERVACIO":" ","NORTE":5698841.8399999999,"ESTE":684237.30000000005}},{"type":"Feature","id":62,"geometry":{"type":"Point","coordinates":[-72.839415428816551,-38.847240707765309]},"properties":{"FID":62,"N":0,"Tipo":"Sede Comunitaria Ignacio Rayman","Comunidad":"Ignacio Rayiman","Sector":"Boroa","Programa":" ","Tecnico":" ","APR_PROYEC":"Mision Boroa","OBSERVACIO":" ","NORTE":5697957,"ESTE":687500}},{"type":"Feature","id":63,"geometry":{"type":"Point","coordinates":[-72.894164724161129,-38.807874848278537]},"properties":{"FID":63,"N":0,"Tipo":"Sede Comunitaria Martin Cayuqueo","Comunidad":"Martin Cayuqueo","Sector":"Pindaco","Programa":" ","Tecnico":" ","APR_PROYEC":"Mision Boroa","OBSERVACIO":" ","NORTE":5702437,"ESTE":682849}},{"type":"Feature","id":64,"geometry":{"type":"Point","coordinates":[-72.868211166147745,-38.830067395579498]},"properties":{"FID":64,"N":0,"Tipo":"Sede Domingo Ñancucheo","Comunidad":"Juan Calvuqueo, Felipe Cheuquepal y Martin Pail","Sector":"Llancapuel, Yeupeco y Rauc","Programa":" ","Tecnico":" ","APR_PROYEC":"Mision Boroa","OBSERVACIO":" ","NORTE":5699921.7199999997,"ESTE":685045.29000000004}},{"type":"Feature","id":65,"geometry":{"type":"Point","coordinates":[-72.863531245960615,-38.829898247995558]},"properties":{"FID":65,"N":0,"Tipo":"Sede Huircan Antonio","Comunidad":"Antonio Huilcan","Sector":"Boroa","Programa":" ","Tecnico":" ","APR_PROYEC":"Mision Boroa","OBSERVACIO":" ","NORTE":5699931,"ESTE":685452}},{"type":"Feature","id":66,"geometry":{"type":"Point","coordinates":[-72.849751016646749,-38.840340463901775]},"properties":{"FID":66,"N":0,"Tipo":"Sede Manuel Huiliman","Comunidad":"Manuel Huiliman y Jose Manuel Pichulman","Sector":"Yeupeco Boroa","Programa":" ","Tecnico":" ","APR_PROYEC":"Mision Boroa","OBSERVACIO":" ","NORTE":5698744,"ESTE":686621}},{"type":"Feature","id":67,"geometry":{"type":"Point","coordinates":[-72.856604794202667,-38.843448872627533]},"properties":{"FID":67,"N":0,"Tipo":"Sede Manuel Huiliman","Comunidad":"Manuel Huiliman y Jose Manuel Pichulman","Sector":"Yeupeco Boroa","Programa":" ","Tecnico":" ","APR_PROYEC":"Mision Boroa","OBSERVACIO":" ","NORTE":5698413,"ESTE":686018}},{"type":"Feature","id":68,"geometry":{"type":"Point","coordinates":[-72.842603874998417,-38.846200421641576]},"properties":{"FID":68,"N":0,"Tipo":"Sede Pichineculman","Comunidad":"Juan de Dios Pichi-Neculman","Sector":"Boroa","Programa":" ","Tecnico":" ","APR_PROYEC":"Mision Boroa","OBSERVACIO":" ","NORTE":5698079,"ESTE":687226}},{"type":"Feature","id":69,"geometry":{"type":"Point","coordinates":[-72.856523166629657,-38.81353330767984]},"properties":{"FID":69,"N":0,"Tipo":"Sede Social","Comunidad":"Gregorio Bonito","Sector":"Huiñoco-Boroa","Programa":" ","Tecnico":" ","APR_PROYEC":"Mision Boroa","OBSERVACIO":" ","NORTE":5701733,"ESTE":686103}},{"type":"Feature","id":70,"geometry":{"type":"Point","coordinates":[-72.910572286574862,-38.83979905695233]},"properties":{"FID":70,"N":0,"Tipo":"Sede Social De Chapuco","Comunidad":"Nicolas Caniullan","Sector":"Chapuco","Programa":" ","Tecnico":" ","APR_PROYEC":"Mision Boroa","OBSERVACIO":" ","NORTE":5698926.6399999997,"ESTE":681343.16000000003}},{"type":"Feature","id":71,"geometry":{"type":"Point","coordinates":[-72.922570492925004,-38.845390144380268]},"properties":{"FID":71,"N":0,"Tipo":"Sede Social De Ralipitra","Comunidad":"Manuel Calfuil","Sector":"Ralipitra","Programa":" ","Tecnico":" ","APR_PROYEC":"Mision Boroa","OBSERVACIO":" ","NORTE":5698329.8799999999,"ESTE":680287.60999999999}},{"type":"Feature","id":72,"geometry":{"type":"Point","coordinates":[-72.866740908555784,-38.812675205707905]},"properties":{"FID":72,"N":0,"Tipo":"Sede Social Francisco Ñancuvil","Comunidad":"Francisco ñancuvil","Sector":"Boroa Postahue","Programa":" ","Tecnico":" ","APR_PROYEC":"Mision Boroa","OBSERVACIO":" ","NORTE":5701849,"ESTE":685218}},{"type":"Feature","id":73,"geometry":{"type":"Point","coordinates":[-72.884262791840783,-38.836903689543036]},"properties":{"FID":73,"N":0,"Tipo":"Sede Social Lolon Felipe Pichicon","Comunidad":"Felipe Pichicon","Sector":"Long Long","Programa":" ","Tecnico":" ","APR_PROYEC":"Mision Boroa","OBSERVACIO":" ","NORTE":5699195.4000000004,"ESTE":683634.25}},{"type":"Feature","id":74,"geometry":{"type":"Point","coordinates":[-72.878257323452317,-38.862702819202362]},"properties":{"FID":74,"N":0,"Tipo":"Sede Social Vicente Aillal","Comunidad":"Vicente Aillal","Sector":"Carcacura","Programa":" ","Tecnico":" ","APR_PROYEC":"Mision Boroa","OBSERVACIO":" ","NORTE":5696320,"ESTE":684089}},{"type":"Feature","id":75,"geometry":{"type":"Point","coordinates":[-72.86950766068702,-38.824871403214459]},"properties":{"FID":75,"N":0,"Tipo":"Sede Y Cancha Clus Deportivo Ex Alumnos","Comunidad":"Antonio Huilcan","Sector":"Boroa","Programa":" ","Tecnico":" ","APR_PROYEC":"Mision Boroa","OBSERVACIO":" ","NORTE":5700501.0199999996,"ESTE":684946.18999999994}},{"type":"Feature","id":76,"geometry":{"type":"Point","coordinates":[-73.044182264725123,-38.682701962353704]},"properties":{"FID":76,"N":0,"Tipo":"Sede Calbul Collio","Comunidad":"Calvul Collio","Sector":"Moltrohue","Programa":" ","Tecnico":" ","APR_PROYEC":"Codihue Ranquilco","OBSERVACIO":" ","NORTE":5716618.2337999996,"ESTE":670118.78610000003}},{"type":"Feature","id":77,"geometry":{"type":"Point","coordinates":[-73.064601202368735,-38.667461719445861]},"properties":{"FID":77,"N":0,"Tipo":"Sede Codihue Curaco","Comunidad":"Perez Cayuqueo","Sector":"Codihue","Programa":" ","Tecnico":" ","APR_PROYEC":"Codihue Ranquilco","OBSERVACIO":" ","NORTE":5718347.2911,"ESTE":668378.2942}},{"type":"Feature","id":78,"geometry":{"type":"Point","coordinates":[-73.085337850194449,-38.646337758336095]},"properties":{"FID":78,"N":0,"Tipo":"Sede Comité Juan Millanao","Comunidad":"Juan Millanao","Sector":"Codihue","Programa":" ","Tecnico":" ","APR_PROYEC":"Codihue Ranquilco","OBSERVACIO":" ","NORTE":5720729.4808999998,"ESTE":666623.02509999997}},{"type":"Feature","id":79,"geometry":{"type":"Point","coordinates":[-73.023313483523907,-38.667584686250393]},"properties":{"FID":79,"N":0,"Tipo":"Sede Comunitaria","Comunidad":"Juan Huenchupil","Sector":"Codihue","Programa":" ","Tecnico":" ","APR_PROYEC":"Codihue Ranquilco","OBSERVACIO":" ","NORTE":5718256.9892999995,"ESTE":671970.31389999995}},{"type":"Feature","id":80,"geometry":{"type":"Point","coordinates":[-73.06777133636362,-38.650414373518615]},"properties":{"FID":80,"N":0,"Tipo":"Sede Comunitaria José Calluqueo","Comunidad":"Jose Cayuqueo","Sector":"Butaco","Programa":" ","Tecnico":" ","APR_PROYEC":"Codihue Ranquilco","OBSERVACIO":" ","NORTE":5720245,"ESTE":668142.34270000004}},{"type":"Feature","id":81,"geometry":{"type":"Point","coordinates":[-73.066164403743286,-38.65056802576256]},"properties":{"FID":81,"N":0,"Tipo":"Sede Comunitaria Pasco Cariqueo","Comunidad":"Pasco Cariqueo","Sector":"Champulli","Programa":" ","Tecnico":" ","APR_PROYEC":"Codihue Ranquilco","OBSERVACIO":" ","NORTE":5720225,"ESTE":668281.82999999996}},{"type":"Feature","id":82,"geometry":{"type":"Point","coordinates":[-73.0644193134994,-38.688786792444134]},"properties":{"FID":82,"N":0,"Tipo":"Sede Comunitaria Pidenco","Comunidad":"Neculhual","Sector":"Pidenco","Programa":" ","Tecnico":" ","APR_PROYEC":"Codihue Ranquilco","OBSERVACIO":" ","NORTE":5715980.3228000002,"ESTE":668344.1361}},{"type":"Feature","id":83,"geometry":{"type":"Point","coordinates":[-73.010005071577311,-38.684076017534956]},"properties":{"FID":83,"N":0,"Tipo":"Sede Francisco Miguel Huinco","Comunidad":"Francisco Miguel Huinca","Sector":"Duñamco","Programa":" ","Tecnico":" ","APR_PROYEC":"Codihue Ranquilco","OBSERVACIO":" ","NORTE":5716401.7324999999,"ESTE":673088.49930000002}},{"type":"Feature","id":84,"geometry":{"type":"Point","coordinates":[-73.014101922107997,-38.697352882128193]},"properties":{"FID":84,"N":0,"Tipo":"Sede Ranquilto Alto","Comunidad":"Manquean, Manquel y Santo","Sector":"Ranquilco Alto","Programa":" ","Tecnico":" ","APR_PROYEC":"Codihue Ranquilco","OBSERVACIO":" ","NORTE":5714935.9989,"ESTE":672700.18810000003}},{"type":"Feature","id":85,"geometry":{"type":"Point","coordinates":[-72.874288599337746,-38.693470297273414]},"properties":{"FID":85,"N":0,"Tipo":"Sede Comunitaria","Comunidad":"Pedro Colillan","Sector":"Chinofcue","Programa":" ","Tecnico":" ","APR_PROYEC":"Cusaco","OBSERVACIO":"Chinofcue","NORTE":5715094,"ESTE":684870}},{"type":"Feature","id":86,"geometry":{"type":"Point","coordinates":[-72.821940066911139,-38.71360890585715]},"properties":{"FID":86,"N":0,"Tipo":"Sede Comunitaria Alvarez Huaiquil","Comunidad":"Alvarez Huaiquin","Sector":"Malalcahuello","Programa":" ","Tecnico":" ","APR_PROYEC":"Cusaco","OBSERVACIO":"Malalcahuello","NORTE":5712752,"ESTE":689370}},{"type":"Feature","id":87,"geometry":{"type":"Point","coordinates":[-72.815620732631075,-38.716437351652708]},"properties":{"FID":87,"N":0,"Tipo":"Sede Comunitaria Bisquico","Comunidad":"Agustin Currin","Sector":"Bisquico","Programa":" ","Tecnico":" ","APR_PROYEC":"Cusaco","OBSERVACIO":"Bisquico","NORTE":5712425,"ESTE":689912}},{"type":"Feature","id":88,"geometry":{"type":"Point","coordinates":[-72.864470686245227,-38.704653511428816]},"properties":{"FID":88,"N":0,"Tipo":"Sede Comunitaria Chinofcue","Comunidad":"Pedro Colillan","Sector":"Chinofcue","Programa":" ","Tecnico":" ","APR_PROYEC":"Cusaco","OBSERVACIO":"Chinofcue","NORTE":5713833,"ESTE":685695}},{"type":"Feature","id":89,"geometry":{"type":"Point","coordinates":[-72.857361331282576,-38.718615692942755]},"properties":{"FID":89,"N":0,"Tipo":"Sede Comunitaria Cusaco","Comunidad":"Painecura Orellana","Sector":"Cusaco","Programa":" ","Tecnico":" ","APR_PROYEC":"Cusaco","OBSERVACIO":"Cusaco","NORTE":5712269,"ESTE":686277}},{"type":"Feature","id":90,"geometry":{"type":"Point","coordinates":[-72.878230102857742,-38.720375030289958]},"properties":{"FID":90,"N":0,"Tipo":"Sede Comunitaria Huallecoyán","Comunidad":"Domingo Guaquilaf","Sector":"Huallecoyam","Programa":" ","Tecnico":" ","APR_PROYEC":"Cusaco","OBSERVACIO":"Huallecoyán","NORTE":5712116,"ESTE":684458}},{"type":"Feature","id":91,"geometry":{"type":"Point","coordinates":[-72.831346542503766,-38.731894672571421]},"properties":{"FID":91,"N":0,"Tipo":"Sede Comunitaria Lelfunche","Comunidad":"Loncon","Sector":"Lelfunche","Programa":" ","Tecnico":" ","APR_PROYEC":"Cusaco","OBSERVACIO":"Lelfunche","NORTE":5710742,"ESTE":688504}},{"type":"Feature","id":92,"geometry":{"type":"Point","coordinates":[-72.832278977571804,-38.712846029192647]},"properties":{"FID":92,"N":0,"Tipo":"Sede Comunitaria Malalcahuello Central","Comunidad":"Juan Collin","Sector":"Malalcahuello","Programa":" ","Tecnico":" ","APR_PROYEC":"Cusaco","OBSERVACIO":"Central Malalcahuello","NORTE":5712858,"ESTE":688473}},{"type":"Feature","id":93,"geometry":{"type":"Point","coordinates":[-72.894437247715942,-38.707395742576722]},"properties":{"FID":93,"N":0,"Tipo":"Sede Social Los Boldos","Comunidad":"Soto Calfuqueo","Sector":"Los Boldos","Programa":" ","Tecnico":" ","APR_PROYEC":"Cusaco","OBSERVACIO":"Los Boldos","NORTE":5713589,"ESTE":683082}},{"type":"Feature","id":94,"geometry":{"type":"Point","coordinates":[-72.887683039969943,-38.799243032363123]},"properties":{"FID":94,"N":0,"Tipo":"Sede Comunitaria C. Indigena Juan Cariqueo","Comunidad":"Juan Cariqueo","Sector":"Ragñintuleufu","Programa":" ","Tecnico":" ","APR_PROYEC":"Entre Rios","OBSERVACIO":" ","NORTE":5703382,"ESTE":683434}},{"type":"Feature","id":95,"geometry":{"type":"Point","coordinates":[-72.851449971108124,-38.799167792596549]},"properties":{"FID":95,"N":0,"Tipo":"Sede Comunitaria C. Indigena Lienqueo","Comunidad":"Lienqueo","Sector":"Ragñintuleufu","Programa":" ","Tecnico":" ","APR_PROYEC":"Entre Rios","OBSERVACIO":" ","NORTE":5703317,"ESTE":686581}},{"type":"Feature","id":96,"geometry":{"type":"Point","coordinates":[-72.874656587894066,-38.782707024089873]},"properties":{"FID":96,"N":0,"Tipo":"Sede Comunitaria C. Indigena Martin Cayuqueo","Comunidad":"Cayuqueo","Sector":"Ragñintuleufu","Programa":" ","Tecnico":" ","APR_PROYEC":"Entre Rios","OBSERVACIO":" ","NORTE":5705191,"ESTE":684608}},{"type":"Feature","id":97,"geometry":{"type":"Point","coordinates":[-72.849366748065137,-38.786118578948141]},"properties":{"FID":97,"N":0,"Tipo":"Sede Comunitaria C. Indigena Valentin Marin","Comunidad":"Valentin Marin","Sector":"Ragñintuleufu","Programa":" ","Tecnico":" ","APR_PROYEC":"Entre Rios","OBSERVACIO":" ","NORTE":5704761,"ESTE":686796}},{"type":"Feature","id":98,"geometry":{"type":"Point","coordinates":[-72.988656587130436,-38.824065202644455]},"properties":{"FID":98,"N":0,"Tipo":"Sede Comunidad Indigena Bernardo Melin","Comunidad":"Bernardo Melin","Sector":"Quedecahuel","Programa":" ","Tecnico":" ","APR_PROYEC":"Pillumallin","OBSERVACIO":" ","NORTE":5700825,"ESTE":674604}},{"type":"Feature","id":99,"geometry":{"type":"Point","coordinates":[-72.996809982322063,-38.82206987146229]},"properties":{"FID":99,"N":0,"Tipo":"Sede Comunidad Indigena Huenchupal","Comunidad":"Huenchupal","Sector":"Nienoco","Programa":" ","Tecnico":" ","APR_PROYEC":"Pillumallin","OBSERVACIO":" ","NORTE":5701062,"ESTE":673901}},{"type":"Feature","id":100,"geometry":{"type":"Point","coordinates":[-72.999688696976833,-38.778868936728088]},"properties":{"FID":100,"N":0,"Tipo":"Sede Comunidad Indigena Painevil Quinchavil","Comunidad":"Painevil Quinchavil","Sector":"Huincul Bajo","Programa":" ","Tecnico":" ","APR_PROYEC":"Pillumallin","OBSERVACIO":" ","NORTE":5705862,"ESTE":673756}},{"type":"Feature","id":101,"geometry":{"type":"Point","coordinates":[-72.994718909079296,-38.78533436292593]},"properties":{"FID":101,"N":0,"Tipo":"Sede Comunitaria Huincul Alto","Comunidad":"Silva Lienqueo","Sector":"Huincul Alto","Programa":" ","Tecnico":" ","APR_PROYEC":"Pillumallin","OBSERVACIO":" ","NORTE":5705135,"ESTE":674172}},{"type":"Feature","id":102,"geometry":{"type":"Point","coordinates":[-72.993964671333956,-38.847106044420755]},"properties":{"FID":102,"N":0,"Tipo":"Sede Comunitaria Lorenzo Montupil","Comunidad":"Lorenzo Montupil","Sector":"Rucarraqui","Programa":" ","Tecnico":" ","APR_PROYEC":"Pillumallin","OBSERVACIO":" ","NORTE":5698278,"ESTE":674087}},{"type":"Feature","id":103,"geometry":{"type":"Point","coordinates":[-73.015756179426134,-38.889268644821833]},"properties":{"FID":103,"N":0,"Tipo":"Sede Comunitaria Pocuno","Comunidad":"Antonio Melipil","Sector":"Pocuno","Programa":" ","Tecnico":" ","APR_PROYEC":"Pillumallin","OBSERVACIO":" ","NORTE":5693640,"ESTE":672094}},{"type":"Feature","id":104,"geometry":{"type":"Point","coordinates":[-73.034998834907839,-38.873762887324546]},"properties":{"FID":104,"N":0,"Tipo":"Sede Social Coihuemo","Comunidad":"Martin Hueichao","Sector":"Coiguemo","Programa":" ","Tecnico":" ","APR_PROYEC":"Pillumallin","OBSERVACIO":" ","NORTE":5695397,"ESTE":670462}},{"type":"Feature","id":105,"geometry":{"type":"Point","coordinates":[-73.020839854985738,-38.846077963154265]},"properties":{"FID":105,"N":0,"Tipo":"Sede Social Comunidad Calvio Santivano","Comunidad":"Calviu Santibano","Sector":"Lincocheguen","Programa":" ","Tecnico":" ","APR_PROYEC":"Pillumallin","OBSERVACIO":" ","NORTE":5698443,"ESTE":671757}},{"type":"Feature","id":106,"geometry":{"type":"Point","coordinates":[-73.005360838739023,-38.85326617635662]},"properties":{"FID":106,"N":0,"Tipo":"Sede Social Comunidad Rosendo Quintrel","Comunidad":"Rosendo Quintrel Llanca","Sector":"Curidollin","Programa":" ","Tecnico":" ","APR_PROYEC":"Pillumallin","OBSERVACIO":" ","NORTE":5697616,"ESTE":673083}},{"type":"Feature","id":107,"geometry":{"type":"Point","coordinates":[-73.015240989639793,-38.865526522926253]},"properties":{"FID":107,"N":0,"Tipo":"Sede Social Pichihue","Comunidad":"Colihuinca Quintriqueo","Sector":"Pichigue","Programa":" ","Tecnico":" ","APR_PROYEC":"Pillumallin","OBSERVACIO":" ","NORTE":5696274,"ESTE":672196}},{"type":"Feature","id":108,"geometry":{"type":"Point","coordinates":[-73.017557376682447,-38.833578857419447]},"properties":{"FID":108,"N":0,"Tipo":"Sede Territorial Pillumallin","Comunidad":"Pascual Coña","Sector":"Pillumallin","Programa":" ","Tecnico":" ","APR_PROYEC":"Pillumallin","OBSERVACIO":" ","NORTE":5699824,"ESTE":672072}},{"type":"Feature","id":109,"geometry":{"type":"Point","coordinates":[-73.053487003007405,-38.825172798745314]},"properties":{"FID":109,"N":0,"Tipo":"Sede","Comunidad":"Carlos Catrivil","Sector":"Cudico","Programa":" ","Tecnico":" ","APR_PROYEC":"Punte Negro","OBSERVACIO":" ","NORTE":5700824,"ESTE":668973}},{"type":"Feature","id":110,"geometry":{"type":"Point","coordinates":[-73.063553850996115,-38.789045700916589]},"properties":{"FID":110,"N":0,"Tipo":"Sede Antonio Levil","Comunidad":"Antonio Levil","Sector":"Zanja Mañio","Programa":" ","Tecnico":" ","APR_PROYEC":"Punte Negro","OBSERVACIO":" ","NORTE":5704852,"ESTE":668184}},{"type":"Feature","id":111,"geometry":{"type":"Point","coordinates":[-73.033362346809469,-38.820204240991387]},"properties":{"FID":111,"N":0,"Tipo":"Sede Comunitaria Huenulef","Comunidad":"Antonio Huenulef","Sector":"Checura","Programa":" ","Tecnico":" ","APR_PROYEC":"Punte Negro","OBSERVACIO":" ","NORTE":5701338,"ESTE":670732}},{"type":"Feature","id":112,"geometry":{"type":"Point","coordinates":[-73.061656931867617,-38.818685957072788]},"properties":{"FID":112,"N":0,"Tipo":"Sede Comunitaria Llaullauquen","Comunidad":"Nicolas Zuñiga","Sector":"Llaullauquen","Programa":" ","Tecnico":" ","APR_PROYEC":"Punte Negro","OBSERVACIO":" ","NORTE":5701559,"ESTE":668279}},{"type":"Feature","id":113,"geometry":{"type":"Point","coordinates":[-73.044147147735629,-38.822160423118326]},"properties":{"FID":113,"N":0,"Tipo":"Sede Cudico","Comunidad":"Pedro ñonque","Sector":"Cudico","Programa":" ","Tecnico":" ","APR_PROYEC":"Punte Negro","OBSERVACIO":" ","NORTE":5701141,"ESTE":669791}},{"type":"Feature","id":114,"geometry":{"type":"Point","coordinates":[-73.05231020938318,-38.804951600274642]},"properties":{"FID":114,"N":0,"Tipo":"Sede Liempi","Comunidad":"Liempi","Sector":"Chapimeo","Programa":" ","Tecnico":" ","APR_PROYEC":"Punte Negro","OBSERVACIO":" ","NORTE":5703066,"ESTE":669123}},{"type":"Feature","id":115,"geometry":{"type":"Point","coordinates":[-73.050833356940444,-38.813928475855541]},"properties":{"FID":115,"N":0,"Tipo":"Sede Social Comunidad","Comunidad":"Pancho Curivil","Sector":"Llaullaq\u0081en Mañio","Programa":" ","Tecnico":" ","APR_PROYEC":"Punte Negro","OBSERVACIO":" ","NORTE":5702067,"ESTE":669230}},{"type":"Feature","id":116,"geometry":{"type":"Point","coordinates":[-73.076405341170315,-38.805630235662349]},"properties":{"FID":116,"N":0,"Tipo":"Sede Social Levipilli","Comunidad":"Juan Puen","Sector":"Levilpille","Programa":" ","Tecnico":" ","APR_PROYEC":"Punte Negro","OBSERVACIO":" ","NORTE":5703035,"ESTE":667029}},{"type":"Feature","id":117,"geometry":{"type":"Point","coordinates":[-72.904308483369064,-38.869570675206987]},"properties":{"FID":117,"N":0,"Tipo":"Sede","Comunidad":"Pedro Quilaqueo","Sector":"Chañil","Programa":" ","Tecnico":" ","APR_PROYEC":"Saltapura","OBSERVACIO":"Chañil","NORTE":5695610,"ESTE":681811}},{"type":"Feature","id":118,"geometry":{"type":"Point","coordinates":[-72.945643267817246,-38.850626849294095]},"properties":{"FID":118,"N":0,"Tipo":"Sede","Comunidad":"Juan Huenchuleo","Sector":"Quilaco","Programa":" ","Tecnico":" ","APR_PROYEC":"Saltapura","OBSERVACIO":"Zuñil","NORTE":5697794,"ESTE":678272}},{"type":"Feature","id":119,"geometry":{"type":"Point","coordinates":[-72.963982672605496,-38.864526701400131]},"properties":{"FID":119,"N":0,"Tipo":"Sede Arenas Blancas","Comunidad":"Huencho ñanco","Sector":"Huampoe","Programa":" ","Tecnico":" ","APR_PROYEC":"Saltapura","OBSERVACIO":"Arenas Blancas","NORTE":5696287,"ESTE":676646}},{"type":"Feature","id":120,"geometry":{"type":"Point","coordinates":[-72.883459406744294,-38.873816775297655]},"properties":{"FID":120,"N":0,"Tipo":"Sede Comunitaria","Comunidad":"Andres Cheuqueman","Sector":"Patrahue","Programa":" ","Tecnico":" ","APR_PROYEC":"Saltapura","OBSERVACIO":"Patrahue","NORTE":5695097,"ESTE":683609}},{"type":"Feature","id":121,"geometry":{"type":"Point","coordinates":[-72.904220499108561,-38.889040251746771]},"properties":{"FID":121,"N":0,"Tipo":"Sede Comunitaria Lorenzo Pehuenche","Comunidad":"Lorenzo Quintriqueo","Sector":"Bolonto","Programa":" ","Tecnico":" ","APR_PROYEC":"Saltapura","OBSERVACIO":"Bolonto","NORTE":5693449,"ESTE":681769}},{"type":"Feature","id":122,"geometry":{"type":"Point","coordinates":[-72.942247443998625,-38.864100562694603]},"properties":{"FID":122,"N":0,"Tipo":"Sede Hueichahue","Comunidad":"Jose Quilaleo","Sector":"Huichahue","Programa":" ","Tecnico":" ","APR_PROYEC":"Saltapura","OBSERVACIO":"Hueichahue","NORTE":5696292,"ESTE":678533}},{"type":"Feature","id":123,"geometry":{"type":"Point","coordinates":[-72.932063401212517,-38.769565628680212]},"properties":{"FID":123,"N":0,"Tipo":"Sede Comunitaria De Caucauche","Comunidad":"Domingo Coliman","Sector":"Caucauche","Programa":" ","Tecnico":" ","APR_PROYEC":"Traitraico","OBSERVACIO":" ","NORTE":5706763.8200000003,"ESTE":679654.13}},{"type":"Feature","id":124,"geometry":{"type":"Point","coordinates":[-72.95640118049306,-38.762937076021778]},"properties":{"FID":124,"N":0,"Tipo":"Sede Comunitaria De Traiful","Comunidad":"Juan Luis Huenul","Sector":"Traitraico","Programa":" ","Tecnico":" ","APR_PROYEC":"Traitraico","OBSERVACIO":" ","NORTE":5707547,"ESTE":677556}},{"type":"Feature","id":125,"geometry":{"type":"Point","coordinates":[-72.946014384996388,-38.757431369833363]},"properties":{"FID":125,"N":0,"Tipo":"Sede Comunitaria De Traitraico","Comunidad":"Juan Luis Huenul","Sector":"Traitraico","Programa":" ","Tecnico":" ","APR_PROYEC":"Traitraico","OBSERVACIO":" ","NORTE":5708137.8200000003,"ESTE":678472.25}},{"type":"Feature","id":126,"geometry":{"type":"Point","coordinates":[-72.888925679603645,-38.79019787529743]},"properties":{"FID":126,"N":0,"Tipo":"Sede Comunidad Curiche Epul","Comunidad":"Curiche Epul","Sector":"Ragñintuleufu","Programa":" ","Tecnico":" ","APR_PROYEC":" ","OBSERVACIO":" ","NORTE":5704388.3568099998,"ESTE":683349.262796}},{"type":"Feature","id":127,"geometry":{"type":"Point","coordinates":[-72.900557365075386,-38.787590675626966]},"properties":{"FID":127,"N":0,"Tipo":"Sede Comunidad Luis Millaqueo","Comunidad":"Luis Millaqueo","Sector":"Ragñintuleufu","Programa":" ","Tecnico":" ","APR_PROYEC":" ","OBSERVACIO":" ","NORTE":5704700.9793100003,"ESTE":682345.58391599997}},{"type":"Feature","id":128,"geometry":{"type":"Point","coordinates":[-73.067749252354545,-38.63983536803844]},"properties":{"FID":128,"N":0,"Tipo":"Sede Codihue Licanco","Comunidad":" ","Sector":"Codihue Licanco","Programa":" ","Tecnico":" ","APR_PROYEC":"Codihue Ranquilco","OBSERVACIO":" ","NORTE":5721419,"ESTE":668169}},{"type":"Feature","id":129,"geometry":{"type":"Point","coordinates":[-73.022761813151675,-38.854895697904723]},"properties":{"FID":129,"N":0,"Tipo":"Sede Social Comunidad Juan Puen","Comunidad":"Juan Puen","Sector":" ","Programa":" ","Tecnico":" ","APR_PROYEC":"Pillumallin","OBSERVACIO":" ","NORTE":5697468,"ESTE":671569}},{"type":"Feature","id":130,"geometry":{"type":"Point","coordinates":[-72.925566388864326,-38.897548832416248]},"properties":{"FID":130,"N":0,"Tipo":"Sede","Comunidad":" ","Sector":" ","Programa":" ","Tecnico":" ","APR_PROYEC":"Saltapura","OBSERVACIO":"Saltapura","NORTE":5692547,"ESTE":679896}},{"type":"Feature","id":131,"geometry":{"type":"Point","coordinates":[-72.911143794820376,-38.904571864960126]},"properties":{"FID":131,"N":0,"Tipo":"Sede Comunitaria Agricultores","Comunidad":" ","Sector":" ","Programa":" ","Tecnico":" ","APR_PROYEC":"Saltapura L2","OBSERVACIO":" ","NORTE":5691739,"ESTE":681129}}]}